[{"OBJECT_NAME":"OBJECT AJ","OBJECT_ID":"2023-085AJ","EPOCH":"2026-03-09T21:40:57.336960","MEAN_MOTION":15.22482723,"ECCENTRICITY":0.0009664,"INCLINATION":97.4789,"RA_OF_ASC_NODE":174.9935,"ARG_OF_PERICENTER":71.8929,"MEAN_ANOMALY":288.3359,"EPHEMERIS_TYPE":0,"CLASSIFICATION_TYPE":"U","NORAD_CAT_ID":57036,"ELEMENT_SET_NO":999,"REV_AT_EPOCH":15122,"BSTAR":0.00051608664,"MEAN_MOTION_DOT":0.00011905,"MEAN_MOTION_DDOT":0},{"OBJECT_NAME":"SPACEMOBILE-002","OBJECT_ID":"2024-163D","EPOCH":"2026-03-09T08:46:52.476096","MEAN_MOTION":15.21108485,"ECCENTRICITY":0.00071237,"INCLINATION":52.9822,"RA_OF_ASC_NODE":48.2355,"ARG_OF_PERICENTER":175.9464,"MEAN_ANOMALY":184.159,"EPHEMERIS_TYPE":0,"CLASSIFICATION_TYPE":"U","NORAD_CAT_ID":61048,"ELEMENT_SET_NO":999,"REV_AT_EPOCH":8257,"BSTAR":0.00072579441,"MEAN_MOTION_DOT":0.00016068,"MEAN_MOTION_DDOT":0}]
